{"type": "FeatureCollection", "features": [{"type": "Feature", "geometry": {"type": "Point", "coordinates": [296.91, 1569.97]}, "properties": {"pipe": "p257", "year": 2018, "kind": "incipient", "diameter_mm": 11.8, "start": "2018-01-08", "true_zone": 11, "detected": "yes", "delay_days": 44, "zone_rank": null}}, {"type": "Feature", "geometry": {"type": "Point", "coordinates": [267.82, 423.37]}, "properties": {"pipe": "p461", "year": 2018, "kind": "incipient", "diameter_mm": 21.3, "start": "2018-01-23", "true_zone": 8, "detected": "yes", "delay_days": 44, "zone_rank": null}}, {"type": "Feature", "geometry": {"type": "Point", "coordinates": [1167.79, 713.02]}, "properties": {"pipe": "p232", "year": 2018, "kind": "incipient", "diameter_mm": 20.1, "start": "2018-01-31", "true_zone": 7, "detected": "no", "delay_days": null, "zone_rank": 4}}, {"type": "Feature", "geometry": {"type": "Point", "coordinates": [1293.7, 960.69]}, "properties": {"pipe": "p427", "year": 2018, "kind": "incipient", "diameter_mm": 9.1, "start": "2018-02-13", "true_zone": 7, "detected": "yes", "delay_days": 38, "zone_rank": 11}}, {"type": "Feature", "geometry": {"type": "Point", "coordinates": [1655.71, 657.27]}, "properties": {"pipe": "p673", "year": 2018, "kind": "abrupt", "diameter_mm": 22.9, "start": "2018-03-05", "true_zone": 5, "detected": "yes", "delay_days": 33, "zone_rank": 1}}, {"type": "Feature", "geometry": {"type": "Point", "coordinates": [2413.3, 397.28]}, "properties": {"pipe": "p810", "year": 2018, "kind": "incipient", "diameter_mm": 10.0, "start": "2018-07-28", "true_zone": 6, "detected": "yes", "delay_days": 21, "zone_rank": 1}}, {"type": "Feature", "geometry": {"type": "Point", "coordinates": [1112.86, 345.84]}, "properties": {"pipe": "p628", "year": 2018, "kind": "incipient", "diameter_mm": 22.3, "start": "2018-05-02", "true_zone": 3, "detected": "yes", "delay_days": 6, "zone_rank": 4}}, {"type": "Feature", "geometry": {"type": "Point", "coordinates": [540.25, 317.17]}, "properties": {"pipe": "p538", "year": 2018, "kind": "abrupt", "diameter_mm": 21.7, "start": "2018-05-18", "true_zone": 8, "detected": "yes", "delay_days": 5, "zone_rank": 1}}, {"type": "Feature", "geometry": {"type": "Point", "coordinates": [2691.82, 842.85]}, "properties": {"pipe": "p866", "year": 2018, "kind": "abrupt", "diameter_mm": 18.1, "start": "2018-06-01", "true_zone": 12, "detected": "yes", "delay_days": 6, "zone_rank": 1}}, {"type": "Feature", "geometry": {"type": "Point", "coordinates": [387.02, 956.05]}, "properties": {"pipe": "p31", "year": 2018, "kind": "incipient", "diameter_mm": 16.4, "start": "2018-06-28", "true_zone": 2, "detected": "yes", "delay_days": 21, "zone_rank": 8}}, {"type": "Feature", "geometry": {"type": "Point", "coordinates": [1249.76, 430.96]}, "properties": {"pipe": "p654", "year": 2018, "kind": "incipient", "diameter_mm": 8.8, "start": "2018-07-05", "true_zone": 3, "detected": "yes", "delay_days": 29, "zone_rank": 11}}, {"type": "Feature", "geometry": {"type": "Point", "coordinates": [2485.54, 632.88]}, "properties": {"pipe": "p183", "year": 2018, "kind": "abrupt", "diameter_mm": 15.9, "start": "2018-08-07", "true_zone": 6, "detected": "yes", "delay_days": 27, "zone_rank": 1}}, {"type": "Feature", "geometry": {"type": "Point", "coordinates": [1899.68, 803.56]}, "properties": {"pipe": "p158", "year": 2018, "kind": "abrupt", "diameter_mm": 19.4, "start": "2018-10-06", "true_zone": 1, "detected": "yes", "delay_days": 12, "zone_rank": 1}}, {"type": "Feature", "geometry": {"type": "Point", "coordinates": [937.42, 1141.56]}, "properties": {"pipe": "p369", "year": 2018, "kind": "abrupt", "diameter_mm": 19.4, "start": "2018-10-26", "true_zone": 9, "detected": "yes", "delay_days": 7, "zone_rank": 1}}, {"type": "Feature", "geometry": {"type": "Point", "coordinates": [426.01, 307.23]}, "properties": {"pipe": "p523", "year": 2019, "kind": "abrupt", "diameter_mm": 20.2, "start": "2019-01-15", "true_zone": 8, "detected": "yes", "delay_days": 10, "zone_rank": 1}}, {"type": "Feature", "geometry": {"type": "Point", "coordinates": [2688.02, 706.02]}, "properties": {"pipe": "p827", "year": 2019, "kind": "abrupt", "diameter_mm": 20.2, "start": "2019-01-24", "true_zone": 12, "detected": "yes", "delay_days": 16, "zone_rank": 1}}, {"type": "Feature", "geometry": {"type": "Point", "coordinates": [290.08, 1114.06]}, "properties": {"pipe": "p280", "year": 2019, "kind": "abrupt", "diameter_mm": 9.5, "start": "2019-02-10", "true_zone": 2, "detected": "yes", "delay_days": 14, "zone_rank": 5}}, {"type": "Feature", "geometry": {"type": "Point", "coordinates": [1231.26, 378.1]}, "properties": {"pipe": "p653", "year": 2019, "kind": "incipient", "diameter_mm": 16.0, "start": "2019-03-03", "true_zone": 3, "detected": "yes", "delay_days": 20, "zone_rank": 6}}, {"type": "Feature", "geometry": {"type": "Point", "coordinates": [1876.12, 895.03]}, "properties": {"pipe": "p710", "year": 2019, "kind": "abrupt", "diameter_mm": 9.3, "start": "2019-03-24", "true_zone": 1, "detected": "yes", "delay_days": 14, "zone_rank": 9}}, {"type": "Feature", "geometry": {"type": "Point", "coordinates": [559.81, 525.94]}, "properties": {"pipe": "p514", "year": 2019, "kind": "abrupt", "diameter_mm": 15.0, "start": "2019-04-02", "true_zone": 10, "detected": "yes", "delay_days": 20, "zone_rank": 1}}, {"type": "Feature", "geometry": {"type": "Point", "coordinates": [899.7, 1204.95]}, "properties": {"pipe": "p331", "year": 2019, "kind": "abrupt", "diameter_mm": 14.1, "start": "2019-04-20", "true_zone": 9, "detected": "yes", "delay_days": 17, "zone_rank": 1}}, {"type": "Feature", "geometry": {"type": "Point", "coordinates": [2755.54, 465.07]}, "properties": {"pipe": "p193", "year": 2019, "kind": "incipient", "diameter_mm": 12.4, "start": "2019-05-19", "true_zone": 6, "detected": "yes", "delay_days": 3, "zone_rank": 11}}, {"type": "Feature", "geometry": {"type": "Point", "coordinates": [446.3, 1416.67]}, "properties": {"pipe": "p277", "year": 2019, "kind": "incipient", "diameter_mm": 12.1, "start": "2019-05-30", "true_zone": 11, "detected": "yes", "delay_days": 14, "zone_rank": 12}}, {"type": "Feature", "geometry": {"type": "Point", "coordinates": [1165.09, 582.26]}, "properties": {"pipe": "p142", "year": 2019, "kind": "abrupt", "diameter_mm": 19.9, "start": "2019-06-12", "true_zone": 3, "detected": "yes", "delay_days": 16, "zone_rank": 2}}, {"type": "Feature", "geometry": {"type": "Point", "coordinates": [1730.98, 563.66]}, "properties": {"pipe": "p680", "year": 2019, "kind": "abrupt", "diameter_mm": 9.7, "start": "2019-07-10", "true_zone": 5, "detected": "yes", "delay_days": 3, "zone_rank": 6}}, {"type": "Feature", "geometry": {"type": "Point", "coordinates": [723.04, 313.78]}, "properties": {"pipe": "p586", "year": 2019, "kind": "incipient", "diameter_mm": 17.2, "start": "2019-07-26", "true_zone": 4, "detected": "yes", "delay_days": 2, "zone_rank": 1}}, {"type": "Feature", "geometry": {"type": "Point", "coordinates": [1777.02, 691.96]}, "properties": {"pipe": "p721", "year": 2019, "kind": "incipient", "diameter_mm": 14.1, "start": "2019-08-02", "true_zone": 5, "detected": "yes", "delay_days": 22, "zone_rank": 5}}, {"type": "Feature", "geometry": {"type": "Point", "coordinates": [2517.19, 884.44]}, "properties": {"pipe": "p800", "year": 2019, "kind": "incipient", "diameter_mm": 18.8, "start": "2019-08-16", "true_zone": 12, "detected": "yes", "delay_days": 23, "zone_rank": 1}}, {"type": "Feature", "geometry": {"type": "Point", "coordinates": [895.28, 770.34]}, "properties": {"pipe": "p123", "year": 2019, "kind": "incipient", "diameter_mm": 11.9, "start": "2019-09-13", "true_zone": 7, "detected": "yes", "delay_days": 10, "zone_rank": 4}}, {"type": "Feature", "geometry": {"type": "Point", "coordinates": [182.3, 346.28]}, "properties": {"pipe": "p455", "year": 2019, "kind": "incipient", "diameter_mm": 12.7, "start": "2019-10-03", "true_zone": 8, "detected": "yes", "delay_days": 5, "zone_rank": 1}}, {"type": "Feature", "geometry": {"type": "Point", "coordinates": [2091.07, 604.96]}, "properties": {"pipe": "p762", "year": 2019, "kind": "incipient", "diameter_mm": 15.2, "start": "2019-10-09", "true_zone": 1, "detected": "yes", "delay_days": 22, "zone_rank": 3}}, {"type": "Feature", "geometry": {"type": "Point", "coordinates": [1252.26, 987.64]}, "properties": {"pipe": "p426", "year": 2019, "kind": "abrupt", "diameter_mm": 15.0, "start": "2019-10-25", "true_zone": 7, "detected": "no", "delay_days": null, "zone_rank": 5}}, {"type": "Feature", "geometry": {"type": "Point", "coordinates": [2816.36, 780.2]}, "properties": {"pipe": "p879", "year": 2019, "kind": "incipient", "diameter_mm": 13.2, "start": "2019-11-20", "true_zone": 12, "detected": "no", "delay_days": null, "zone_rank": 2}}]}