{"type": "FeatureCollection", "features": [{"type": "Feature", "geometry": {"type": "Point", "coordinates": [138.22, 1549.64]}, "properties": {"sensor": "n1"}}, {"type": "Feature", "geometry": {"type": "Point", "coordinates": [186.62, 1326.65]}, "properties": {"sensor": "n4"}}, {"type": "Feature", "geometry": {"type": "Point", "coordinates": [361.51, 1100.77]}, "properties": {"sensor": "n31"}}, {"type": "Feature", "geometry": {"type": "Point", "coordinates": [621.8, 1124.08]}, "properties": {"sensor": "n54"}}, {"type": "Feature", "geometry": {"type": "Point", "coordinates": [332.64, 554.96]}, "properties": {"sensor": "n105"}}, {"type": "Feature", "geometry": {"type": "Point", "coordinates": [240.32, 280.96]}, "properties": {"sensor": "n114"}}, {"type": "Feature", "geometry": {"type": "Point", "coordinates": [869.24, 622.9]}, "properties": {"sensor": "n163"}}, {"type": "Feature", "geometry": {"type": "Point", "coordinates": [936.66, 285.66]}, "properties": {"sensor": "n188"}}, {"type": "Feature", "geometry": {"type": "Point", "coordinates": [1638.34, 378.76]}, "properties": {"sensor": "n215"}}, {"type": "Feature", "geometry": {"type": "Point", "coordinates": [1757.58, 636.18]}, "properties": {"sensor": "n229"}}, {"type": "Feature", "geometry": {"type": "Point", "coordinates": [2266.76, 478.46]}, "properties": {"sensor": "n288"}}, {"type": "Feature", "geometry": {"type": "Point", "coordinates": [2576.89, 923.8]}, "properties": {"sensor": "n296"}}, {"type": "Feature", "geometry": {"type": "Point", "coordinates": [603.95, 462.8]}, "properties": {"sensor": "n332"}}, {"type": "Feature", "geometry": {"type": "Point", "coordinates": [1417.76, 851.74]}, "properties": {"sensor": "n342"}}, {"type": "Feature", "geometry": {"type": "Point", "coordinates": [820.52, 1331.76]}, "properties": {"sensor": "n410"}}, {"type": "Feature", "geometry": {"type": "Point", "coordinates": [532.49, 833.25]}, "properties": {"sensor": "n415"}}, {"type": "Feature", "geometry": {"type": "Point", "coordinates": [904.62, 1077.18]}, "properties": {"sensor": "n429"}}, {"type": "Feature", "geometry": {"type": "Point", "coordinates": [1066.26, 847.65]}, "properties": {"sensor": "n458"}}, {"type": "Feature", "geometry": {"type": "Point", "coordinates": [223.12, 777.03]}, "properties": {"sensor": "n469"}}, {"type": "Feature", "geometry": {"type": "Point", "coordinates": [490.66, 626.35]}, "properties": {"sensor": "n495"}}, {"type": "Feature", "geometry": {"type": "Point", "coordinates": [417.64, 392.3]}, "properties": {"sensor": "n506"}}, {"type": "Feature", "geometry": {"type": "Point", "coordinates": [330.92, 117.53]}, "properties": {"sensor": "n516"}}, {"type": "Feature", "geometry": {"type": "Point", "coordinates": [713.91, 799.8]}, "properties": {"sensor": "n519"}}, {"type": "Feature", "geometry": {"type": "Point", "coordinates": [625.26, 208.53]}, "properties": {"sensor": "n549"}}, {"type": "Feature", "geometry": {"type": "Point", "coordinates": [1369.15, 537.26]}, "properties": {"sensor": "n613"}}, {"type": "Feature", "geometry": {"type": "Point", "coordinates": [1894.24, 943.73]}, "properties": {"sensor": "n636"}}, {"type": "Feature", "geometry": {"type": "Point", "coordinates": [1848.45, 836.28]}, "properties": {"sensor": "n644"}}, {"type": "Feature", "geometry": {"type": "Point", "coordinates": [2164.96, 839.55]}, "properties": {"sensor": "n679"}}, {"type": "Feature", "geometry": {"type": "Point", "coordinates": [2666.4, 775.59]}, "properties": {"sensor": "n722"}}, {"type": "Feature", "geometry": {"type": "Point", "coordinates": [2459.66, 718.99]}, "properties": {"sensor": "n726"}}, {"type": "Feature", "geometry": {"type": "Point", "coordinates": [2740.36, 904.38]}, "properties": {"sensor": "n740"}}, {"type": "Feature", "geometry": {"type": "Point", "coordinates": [2580.23, 594.98]}, "properties": {"sensor": "n752"}}, {"type": "Feature", "geometry": {"type": "Point", "coordinates": [2828.5, 602.31]}, "properties": {"sensor": "n769"}}]}