{"type": "FeatureCollection", "features": [{"type": "Feature", "geometry": {"type": "Point", "coordinates": [2084.2630729166667, 668.2788541666667]}, "properties": {"zone": 1, "n_pipes": 96, "length_km": 4.51}}, {"type": "Feature", "geometry": {"type": "Point", "coordinates": [344.43296875, 1062.7803125]}, "properties": {"zone": 2, "n_pipes": 64, "length_km": 3.18}}, {"type": "Feature", "geometry": {"type": "Point", "coordinates": [1235.0222881355933, 488.74177966101695]}, "properties": {"zone": 3, "n_pipes": 59, "length_km": 2.85}}, {"type": "Feature", "geometry": {"type": "Point", "coordinates": [776.995388888889, 450.5543888888889]}, "properties": {"zone": 4, "n_pipes": 90, "length_km": 4.18}}, {"type": "Feature", "geometry": {"type": "Point", "coordinates": [1635.5902551020408, 702.4916326530613]}, "properties": {"zone": 5, "n_pipes": 98, "length_km": 4.59}}, {"type": "Feature", "geometry": {"type": "Point", "coordinates": [2580.1036301369863, 528.9801369863014]}, "properties": {"zone": 6, "n_pipes": 73, "length_km": 3.41}}, {"type": "Feature", "geometry": {"type": "Point", "coordinates": [1035.3211445783134, 858.7472891566264]}, "properties": {"zone": 7, "n_pipes": 83, "length_km": 3.96}}, {"type": "Feature", "geometry": {"type": "Point", "coordinates": [351.5796774193548, 264.4634677419355]}, "properties": {"zone": 8, "n_pipes": 62, "length_km": 2.97}}, {"type": "Feature", "geometry": {"type": "Point", "coordinates": [772.3912987012986, 1142.9736363636364]}, "properties": {"zone": 9, "n_pipes": 77, "length_km": 3.66}}, {"type": "Feature", "geometry": {"type": "Point", "coordinates": [412.9122, 616.5399333333334]}, "properties": {"zone": 10, "n_pipes": 75, "length_km": 3.64}}, {"type": "Feature", "geometry": {"type": "Point", "coordinates": [382.90882352941173, 1405.564411764706]}, "properties": {"zone": 11, "n_pipes": 51, "length_km": 2.52}}, {"type": "Feature", "geometry": {"type": "Point", "coordinates": [2591.016689189189, 874.092027027027]}, "properties": {"zone": 12, "n_pipes": 74, "length_km": 3.61}}]}